C/2001 OG108 (LONEOS),e,80.2440,10.5541,116.4208,13.29244,0.0203375,0.92521515,5.1210,11/22.0/2002,2000,g 11.0,4.0
C/2001 Q1 (NEAT),e,66.9616,139.2642,175.4224,169.0738,0.0004483,0.96549821,0.1917,11/22.0/2002,2000,g  7.0,4.0
P/2001 Q2 (Petriew),e,13.9471,214.0901,181.8813,3.111672,0.1795616,0.69623893,80.1053,11/22.0/2002,2000,g 11.0,4.0
C/2001 Q4 (NEAT),h,05/15.9427/2004,99.6249,210.2529,1.1942,1.000727,0.962080,2000,3.5,4.0
P/2001 Q5 (LINEAR-NEAT),e,10.9513,336.1959,6.7213,3.509716,0.1498981,0.41677959,79.1225,11/22.0/2002,2000,g 12.0,4.0
C/2001 RX14 (LINEAR),h,01/18.7036/2003,30.5739,14.1722,121.4835,1.001599,2.057600,2000,6.5,4.0
P/2001 T3 (NEAT),e,19.1843,56.4841,356.2977,6.524911,0.0591347,0.61602092,17.3732,11/22.0/2002,2000,g 12.0,4.0
C/2001 T4 (NEAT),e,15.3647,64.4959,321.8654,13.89876,0.0190213,0.38380743,3.5234,11/22.0/2002,2000,g  5.5,4.0
C/2001 U6 (LINEAR),e,107.2556,115.2308,85.7285,1277,0.0000216,0.99654987,0.0000,08/08.7468/2002,2000,g  7.5,4.0
P/2001 YX127 (LINEAR),e,7.9031,31.2264,115.9731,4.178233,0.1154025,0.18002355,347.7522,11/22.0/2002,2000,g 14.5,2.0
C/2002 A1 (LINEAR),e,14.0045,81.5784,19.0428,16.83001,0.0142750,0.72033955,5.1465,11/22.0/2002,2000,g 12.5,2.0
C/2002 A2 (LINEAR),e,13.9860,81.6216,19.2191,16.67172,0.0144788,0.71785150,5.1338,11/22.0/2002,2000,g 11.0,2.0
P/2002 AR2 (LINEAR),e,21.1161,7.8198,73.6425,5.367687,0.0792544,0.61551088,24.5369,11/22.0/2002,2000,g 12.0,4.0
C/2002 A3 (LINEAR),h,04/25.5548/2002,48.2542,136.4840,329.6520,1.011755,5.152934,2000,6.5,4.0
C/2002 B1 (LINEAR),e,51.0201,58.1813,76.1692,9.908855,0.0315987,0.77078869,6.8246,11/22.0/2002,2000,g 11.5,4.0
C/2002 B2 (LINEAR),p,04/06.7711/2002,152.8720,257.0670,3.842966,54.3227,2000,9.0,4.0
C/2002 B3 (LINEAR),p,01/14.4151/2002,73.6796,122.9251,6.052462,289.3856,2000,7.0,4.0
C/2002 C2 (LINEAR),e,104.8754,242.9562,159.9380,9097,0.0000011,0.99964230,0.0000,04/10.8227/2002,2000,g  8.5,4.0
C/2002 E2 (Snyder-Murakami),h,02/21.7743/2002,92.5443,244.5801,9.0271,1.000487,1.466410,2000,7.5,4.0
P/2002 EJ57 (LINEAR),e,4.9695,330.3825,166.9136,6.487960,0.0596406,0.59373536,20.1481,11/22.0/2002,2000,g 12.5,4.0
C/2002 F1 (Utsunomiya),e,80.8767,289.0294,125.9001,954.5536,0.0000334,0.99954083,0.0000,04/22.8985/2002,2000,g  8.5,4.0
C/2002 H2 (LINEAR),e,110.5008,269.0043,20.4256,279.1591,0.0002113,0.99414321,0.0000,03/23.4077/2002,2000,g 10.5,4.0
C/2002 J4 (NEAT),p,10/03.1887/2003,46.5297,230.7324,3.632555,70.8855,2000,5.5,4.0
C/2002 J5 (LINEAR),h,09/19.2250/2003,117.2280,314.1107,74.8297,1.002287,5.726746,2000,11.0,2.0
C/2002 K1 (NEAT),e,89.7215,280.5481,4.4510,8929,0.0000012,0.99963823,0.0000,06/16.4121/2002,2000,g 10.0,4.0
C/2002 K2 (LINEAR),p,01/06.2014/2002,130.9163,26.7135,5.237779,294.5888,2000,12.0,2.0
C/2002 K4 (NEAT),e,94.0635,308.0998,24.4272,17.51623,0.0134444,0.84217564,1.7753,11/22.0/2002,2000,g 10.5,4.0
C/2002 L9 (NEAT),e,68.4490,110.4657,231.4769,10803,0.0000009,0.99934915,0.0000,04/06.5082/2004,2000,g  8.5,2.0
C/2002 O4 (Hoenig),h,10/01.9827/2002,73.1268,321.0406,105.9380,1.000872,0.776202,2000,9.5,4.0
C/2002 O6 (SWAN),e,58.6247,330.9520,78.7480,355.3163,0.0001472,0.99860786,0.0000,09/09.4491/2002,2000,g 10.0,4.0
C/2002 O7 (LINEAR),h,09/22.5782/2003,98.7461,12.8000,252.0689,1.000242,0.903338,2000,6.5,4.0
P/2002 Q1 (Van Ness),e,36.3675,174.1016,184.7494,3.534887,0.1482999,0.56962072,359.8536,07/15.0/2002,2000,g 13.0,4.0
C/2002 Q5 (LINEAR),h,11/19.2006/2002,149.1641,33.7473,133.3067,1.001555,1.242963,2000,9.0,4.0
C/2002 R3 (LONEOS),h,06/13.4785/2003,161.0944,54.2939,45.0651,1.002535,3.869599,2000,8.0,4.0
P/2002 S1 (Skiff),e,27.6877,347.3774,35.4639,4.039855,0.1213823,0.42926420,29.3367,11/22.0/2002,2000,g 11.0,4.0
P/2002 T5 (LINEAR),e,30.9042,123.3329,326.7275,6.981500,0.0534295,0.43644998,348.3695,11/22.0/2002,2000,g  8.0,4.0
P/2002 T6 (NEAT-LINEAR),e,11.0089,209.0455,217.5238,7.648526,0.0465948,0.55704884,349.8973,11/22.0/2002,2000,g 10.5,4.0
C/2002 T7 (LINEAR),h,04/23.1144/2004,160.5913,94.8625,157.6911,1.000625,0.615936,2000,4.0,4.0
C/2002 U2 (LINEAR),e,59.1351,38.7761,95.8458,74354,0.0000000,0.99998374,0.0000,12/31.9847/2002,2000,g 13.0,4.0
C/2002 V1 (NEAT),e,81.7171,64.0880,152.1682,1087,0.0000275,0.99990866,0.0000,02/18.2967/2003,2000,g  8.0,4.0
C/2002 V2 (LINEAR),p,05/13.2834/2003,166.7784,314.6360,6.812948,20.2196,2000,6.0,4.0
C/2002 X1 (LINEAR),e,164.0965,281.8742,207.3281,2166,0.0000098,0.99885202,0.0000,07/12.8851/2003,2000,g  8.0,4.0
P/2002 X2 (NEAT),e,25.3551,78.1530,356.0165,4.034869,0.1216074,0.37322386,344.4897,11/22.0/2002,2000,g 12.0,4.0
C/2002 X5 (Kudo-Fujikawa),p,01/29.0034/2003,94.1519,187.5659,0.190047,119.0686,2000,8.5,4.0
C/2002 Y1 (Juels-Holvorcem),e,103.7781,166.2177,128.8212,242.1968,0.0002615,0.99705301,0.0000,04/13.2503/2003,2000,g  9.5,4.0
P/2003 A1,e,46.2649,55.1898,357.0521,3.693015,0.1388777,0.48119421,359.9745,02/01.0/2003,2000,g 13.5,4.0
C/2003 A2 (Gleason),h,11/03.1415/2003,8.0616,154.5436,346.5711,1.006980,11.427887,2000,3.5,4.0
